{
  "type": "FeatureCollection",
  "features": [
    {
      "type": "Feature",
      "properties": {
        "norad_id": 32461,
        "name": "FENGYUN 1C DEB",
        "group": "fengyun-1c-debris",
        "lat": -2.957653293426669,
        "lon": -162.7776930378697,
        "alt_km": 1113.2404341062092,
        "timestamp": "2025-12-06T20:37:56.359186+00:00",
        "meta_object_name": "FENGYUN 1C DEB",
        "meta_object_id": "1999-025DBZ",
        "meta_epoch": "2025-12-06T13:47:26.922624",
        "meta_mean_motion": 13.72810321,
        "meta_eccentricity": 0.02320135,
        "meta_inclination": 98.3348,
        "meta_ra_of_asc_node": 196.5399,
        "meta_arg_of_pericenter": 133.6429,
        "meta_mean_anomaly": 257.3138,
        "meta_ephemeris_type": 0,
        "meta_classification_type": "U",
        "meta_norad_cat_id": 32461,
        "meta_element_set_no": 999,
        "meta_rev_at_epoch": 67210,
        "meta_bstar": 0.001699488,
        "meta_mean_motion_dot": 1.863e-05,
        "meta_mean_motion_ddot": 0,
        "tle_line1": "1 32461U 99025DBZ 25340.57461716  .00001863  00000+0  16995-2 0  9991",
        "tle_line2": "2 32461  98.3348 196.5399 0232013 133.6429 257.3138 13.72810321672107"
      },
      "geometry": {
        "type": "Point",
        "coordinates": [
          -162.7776930378697,
          -2.957653293426669
        ]
      }
    },
    {
      "type": "Feature",
      "properties": {
        "norad_id": 32464,
        "name": "FENGYUN 1C DEB",
        "group": "fengyun-1c-debris",
        "lat": 63.677816617829286,
        "lon": -9.577289162020127,
        "alt_km": 660.4665803968046,
        "timestamp": "2025-12-06T20:37:56.359197+00:00",
        "meta_object_name": "FENGYUN 1C DEB",
        "meta_object_id": "1999-025DCC",
        "meta_epoch": "2025-12-06T07:28:05.693664",
        "meta_mean_motion": 14.92649103,
        "meta_eccentricity": 0.01129539,
        "meta_inclination": 97.3565,
        "meta_ra_of_asc_node": 5.0481,
        "meta_arg_of_pericenter": 258.103,
        "meta_mean_anomaly": 100.7507,
        "meta_ephemeris_type": 0,
        "meta_classification_type": "U",
        "meta_norad_cat_id": 32464,
        "meta_element_set_no": 999,
        "meta_rev_at_epoch": 60696,
        "meta_bstar": 0.002252782,
        "meta_mean_motion_dot": 0.000263,
        "meta_mean_motion_ddot": 0,
        "tle_line1": "1 32464U 99025DCC 25340.31117701  .00026300  00000+0  22528-2 0  9990",
        "tle_line2": "2 32464  97.3565   5.0481 0112953 258.1030 100.7507 14.92649103606960"
      },
      "geometry": {
        "type": "Point",
        "coordinates": [
          -9.577289162020127,
          63.677816617829286
        ]
      }
    },
    {
      "type": "Feature",
      "properties": {
        "norad_id": 33502,
        "name": "FENGYUN 1C DEB",
        "group": "fengyun-1c-debris",
        "lat": -0.7662936311534834,
        "lon": -76.39604897183368,
        "alt_km": 878.4332080464164,
        "timestamp": "2025-12-06T20:37:56.359207+00:00",
        "meta_object_name": "FENGYUN 1C DEB",
        "meta_object_id": "1999-025DCF",
        "meta_epoch": "2025-12-06T14:15:41.704416",
        "meta_mean_motion": 14.21767087,
        "meta_eccentricity": 0.00789337,
        "meta_inclination": 99.026,
        "meta_ra_of_asc_node": 283.2107,
        "meta_arg_of_pericenter": 170.7868,
        "meta_mean_anomaly": 270.8035,
        "meta_ephemeris_type": 0,
        "meta_classification_type": "U",
        "meta_norad_cat_id": 33502,
        "meta_element_set_no": 999,
        "meta_rev_at_epoch": 86868,
        "meta_bstar": 0.0038643178,
        "meta_mean_motion_dot": 8.738e-05,
        "meta_mean_motion_ddot": 0,
        "tle_line1": "1 33502U 99025DCF 25340.59423269  .00008738  00000+0  38643-2 0  9993",
        "tle_line2": "2 33502  99.0260 283.2107 0078933 170.7868 270.8035 14.21767087868685"
      },
      "geometry": {
        "type": "Point",
        "coordinates": [
          -76.39604897183368,
          -0.7662936311534834
        ]
      }
    },
    {
      "type": "Feature",
      "properties": {
        "norad_id": 33599,
        "name": "FENGYUN 1C DEB",
        "group": "fengyun-1c-debris",
        "lat": 63.418952018533936,
        "lon": -117.21012525357692,
        "alt_km": 593.4647696534375,
        "timestamp": "2025-12-06T20:37:56.359218+00:00",
        "meta_object_name": "FENGYUN 1C DEB",
        "meta_object_id": "1999-025DCG",
        "meta_epoch": "2025-12-05T10:49:54.411744",
        "meta_mean_motion": 15.1486166,
        "meta_eccentricity": 0.01263292,
        "meta_inclination": 96.6147,
        "meta_ra_of_asc_node": 48.1531,
        "meta_arg_of_pericenter": 325.886,
        "meta_mean_anomaly": 33.4301,
        "meta_ephemeris_type": 0,
        "meta_classification_type": "U",
        "meta_norad_cat_id": 33599,
        "meta_element_set_no": 999,
        "meta_rev_at_epoch": 65893,
        "meta_bstar": 0.0019806341,
        "meta_mean_motion_dot": 0.00045209,
        "meta_mean_motion_ddot": 0,
        "tle_line1": "1 33599U 99025DCG 25339.45132421  .00045209  00000+0  19806-2 0  9993",
        "tle_line2": "2 33599  96.6147  48.1531 0126329 325.8860  33.4301 15.14861660658934"
      },
      "geometry": {
        "type": "Point",
        "coordinates": [
          -117.21012525357692,
          63.418952018533936
        ]
      }
    },
    {
      "type": "Feature",
      "properties": {
        "norad_id": 33601,
        "name": "FENGYUN 1C DEB",
        "group": "fengyun-1c-debris",
        "lat": -28.709553017828995,
        "lon": 142.0996748965386,
        "alt_km": 986.2947820610043,
        "timestamp": "2025-12-06T20:37:56.359228+00:00",
        "meta_object_name": "FENGYUN 1C DEB",
        "meta_object_id": "1999-025DCJ",
        "meta_epoch": "2025-11-28T21:43:48.473760",
        "meta_mean_motion": 14.07801571,
        "meta_eccentricity": 0.01586414,
        "meta_inclination": 98.3138,
        "meta_ra_of_asc_node": 130.1771,
        "meta_arg_of_pericenter": 181.8859,
        "meta_mean_anomaly": 178.1734,
        "meta_ephemeris_type": 0,
        "meta_classification_type": "U",
        "meta_norad_cat_id": 33601,
        "meta_element_set_no": 999,
        "meta_rev_at_epoch": 90485,
        "meta_bstar": 0.0013995386,
        "meta_mean_motion_dot": 2.622e-05,
        "meta_mean_motion_ddot": 0,
        "tle_line1": "1 33601U 99025DCJ 25332.90542215  .00002622  00000+0  13995-2 0  9991",
        "tle_line2": "2 33601  98.3138 130.1771 0158641 181.8859 178.1734 14.07801571904853"
      },
      "geometry": {
        "type": "Point",
        "coordinates": [
          142.0996748965386,
          -28.709553017828995
        ]
      }
    },
    {
      "type": "Feature",
      "properties": {
        "norad_id": 33603,
        "name": "FENGYUN 1C DEB",
        "group": "fengyun-1c-debris",
        "lat": -76.0547086735935,
        "lon": -45.39963347069802,
        "alt_km": 789.3273178044428,
        "timestamp": "2025-12-06T20:37:56.359238+00:00",
        "meta_object_name": "FENGYUN 1C DEB",
        "meta_object_id": "1999-025DCL",
        "meta_epoch": "2025-12-05T01:11:07.399680",
        "meta_mean_motion": 14.79868588,
        "meta_eccentricity": 0.0220742,
        "meta_inclination": 98.8039,
        "meta_ra_of_asc_node": 273.997,
        "meta_arg_of_pericenter": 96.7761,
        "meta_mean_anomaly": 265.8619,
        "meta_ephemeris_type": 0,
        "meta_classification_type": "U",
        "meta_norad_cat_id": 33603,
        "meta_element_set_no": 999,
        "meta_rev_at_epoch": 98746,
        "meta_bstar": 0.00035268434,
        "meta_mean_motion_dot": 3.96e-05,
        "meta_mean_motion_ddot": 0,
        "tle_line1": "1 33603U 99025DCL 25339.04939120  .00003960  00000+0  35268-3 0  9994",
        "tle_line2": "2 33603  98.8039 273.9970 0220742  96.7761 265.8619 14.79868588987469"
      },
      "geometry": {
        "type": "Point",
        "coordinates": [
          -45.39963347069802,
          -76.0547086735935
        ]
      }
    },
    {
      "type": "Feature",
      "properties": {
        "norad_id": 33605,
        "name": "FENGYUN 1C DEB",
        "group": "fengyun-1c-debris",
        "lat": -81.19114847839212,
        "lon": 79.02796141615396,
        "alt_km": 915.8302220688447,
        "timestamp": "2025-12-06T20:37:56.359249+00:00",
        "meta_object_name": "FENGYUN 1C DEB",
        "meta_object_id": "1999-025DCN",
        "meta_epoch": "2025-12-06T05:47:20.437728",
        "meta_mean_motion": 14.07750493,
        "meta_eccentricity": 0.00572325,
        "meta_inclination": 98.6983,
        "meta_ra_of_asc_node": 339.5011,
        "meta_arg_of_pericenter": 93.1166,
        "meta_mean_anomaly": 282.8792,
        "meta_ephemeris_type": 0,
        "meta_classification_type": "U",
        "meta_norad_cat_id": 33605,
        "meta_element_set_no": 999,
        "meta_rev_at_epoch": 59727,
        "meta_bstar": 0.0008681193,
        "meta_mean_motion_dot": 1.45e-05,
        "meta_mean_motion_ddot": 0,
        "tle_line1": "1 33605U 99025DCN 25340.24120877  .00001450  00000+0  86812-3 0  9994",
        "tle_line2": "2 33605  98.6983 339.5011 0057232  93.1166 282.8792 14.07750493597277"
      },
      "geometry": {
        "type": "Point",
        "coordinates": [
          79.02796141615396,
          -81.19114847839212
        ]
      }
    }
  ]
}